{
  "type": "FeatureCollection",
  "features": [
    {
      "type": "Feature",
      "properties": {
        "norad_id": 29807,
        "name": "FENGYUN 1C DEB",
        "group": "fengyun-1c-debris",
        "lat": 41.813400696928404,
        "lon": -3.8886121845482844,
        "alt_km": 877.5279975336052,
        "timestamp": "2025-12-25T19:00:39.622189+00:00",
        "meta_object_name": "FENGYUN 1C DEB",
        "meta_object_id": "1999-025CZ",
        "meta_epoch": "2025-12-25T00:03:32.584608",
        "meta_mean_motion": 14.08668991,
        "meta_eccentricity": 0.00790875,
        "meta_inclination": 98.7548,
        "meta_ra_of_asc_node": 3.2678,
        "meta_arg_of_pericenter": 296.9934,
        "meta_mean_anomaly": 62.3176,
        "meta_ephemeris_type": 0,
        "meta_classification_type": "U",
        "meta_norad_cat_id": 29807,
        "meta_element_set_no": 999,
        "meta_rev_at_epoch": 97267,
        "meta_bstar": 0.00025825569,
        "meta_mean_motion_dot": 4.14e-06,
        "meta_mean_motion_ddot": 0,
        "tle_line1": "1 29807U 99025CZ  25359.00246047  .00000414  00000+0  25826-3 0  9992",
        "tle_line2": "2 29807  98.7548   3.2678 0079087 296.9934  62.3176 14.08668991972676"
      },
      "geometry": {
        "type": "Point",
        "coordinates": [
          -3.8886121845482844,
          41.813400696928404
        ]
      }
    },
    {
      "type": "Feature",
      "properties": {
        "norad_id": 29808,
        "name": "FENGYUN 1C DEB",
        "group": "fengyun-1c-debris",
        "lat": -74.68624878222309,
        "lon": 65.37282983391928,
        "alt_km": 494.27461538939406,
        "timestamp": "2025-12-25T19:00:39.622199+00:00",
        "meta_object_name": "FENGYUN 1C DEB",
        "meta_object_id": "1999-025DA",
        "meta_epoch": "2025-12-24T18:27:42.919200",
        "meta_mean_motion": 15.29862504,
        "meta_eccentricity": 0.001984,
        "meta_inclination": 99.0146,
        "meta_ra_of_asc_node": 279.5674,
        "meta_arg_of_pericenter": 80.4153,
        "meta_mean_anomaly": 305.4142,
        "meta_ephemeris_type": 0,
        "meta_classification_type": "U",
        "meta_norad_cat_id": 29808,
        "meta_element_set_no": 999,
        "meta_rev_at_epoch": 98409,
        "meta_bstar": 0.015234515,
        "meta_mean_motion_dot": 0.00470739,
        "meta_mean_motion_ddot": 0,
        "tle_line1": "1 29808U 99025DA  25358.76924675  .00470739  00000+0  15235-1 0  9997",
        "tle_line2": "2 29808  99.0146 279.5674 0019840  80.4153 305.4142 15.29862504984092"
      },
      "geometry": {
        "type": "Point",
        "coordinates": [
          65.37282983391928,
          -74.68624878222309
        ]
      }
    },
    {
      "type": "Feature",
      "properties": {
        "norad_id": 29809,
        "name": "FENGYUN 1C DEB",
        "group": "fengyun-1c-debris",
        "lat": 45.80366627111269,
        "lon": -45.30425017418333,
        "alt_km": 740.0552390600596,
        "timestamp": "2025-12-25T19:00:39.622209+00:00",
        "meta_object_name": "FENGYUN 1C DEB",
        "meta_object_id": "1999-025DB",
        "meta_epoch": "2025-12-24T21:31:01.043040",
        "meta_mean_motion": 14.46624191,
        "meta_eccentricity": 0.0115434,
        "meta_inclination": 98.862,
        "meta_ra_of_asc_node": 322.9927,
        "meta_arg_of_pericenter": 313.4695,
        "meta_mean_anomaly": 110.4171,
        "meta_ephemeris_type": 0,
        "meta_classification_type": "U",
        "meta_norad_cat_id": 29809,
        "meta_element_set_no": 999,
        "meta_rev_at_epoch": 99643,
        "meta_bstar": 0.0003523,
        "meta_mean_motion_dot": 1.326e-05,
        "meta_mean_motion_ddot": 0,
        "tle_line1": "1 29809U 99025DB  25358.89653985  .00001326  00000+0  35230-3 0  9996",
        "tle_line2": "2 29809  98.8620 322.9927 0115434 313.4695 110.4171 14.46624191996430"
      },
      "geometry": {
        "type": "Point",
        "coordinates": [
          -45.30425017418333,
          45.80366627111269
        ]
      }
    },
    {
      "type": "Feature",
      "properties": {
        "norad_id": 29810,
        "name": "FENGYUN 1C DEB",
        "group": "fengyun-1c-debris",
        "lat": -30.554950072226255,
        "lon": 42.83334373237911,
        "alt_km": 753.9680304500644,
        "timestamp": "2025-12-25T19:00:39.622226+00:00",
        "meta_object_name": "FENGYUN 1C DEB",
        "meta_object_id": "1999-025DC",
        "meta_epoch": "2025-12-25T02:38:19.485600",
        "meta_mean_motion": 14.2914648,
        "meta_eccentricity": 0.00663555,
        "meta_inclination": 99.2053,
        "meta_ra_of_asc_node": 36.62,
        "meta_arg_of_pericenter": 343.3052,
        "meta_mean_anomaly": 78.1743,
        "meta_ephemeris_type": 0,
        "meta_classification_type": "U",
        "meta_norad_cat_id": 29810,
        "meta_element_set_no": 999,
        "meta_rev_at_epoch": 98554,
        "meta_bstar": 0.00025270869,
        "meta_mean_motion_dot": 6.07e-06,
        "meta_mean_motion_ddot": 0,
        "tle_line1": "1 29810U 99025DC  25359.10994775  .00000607  00000+0  25271-3 0  9993",
        "tle_line2": "2 29810  99.2053  36.6200 0066355 343.3052  78.1743 14.29146480985542"
      },
      "geometry": {
        "type": "Point",
        "coordinates": [
          42.83334373237911,
          -30.554950072226255
        ]
      }
    },
    {
      "type": "Feature",
      "properties": {
        "norad_id": 29812,
        "name": "FENGYUN 1C DEB",
        "group": "fengyun-1c-debris",
        "lat": 14.859800166470908,
        "lon": -174.68654216429405,
        "alt_km": 875.3175196958964,
        "timestamp": "2025-12-25T19:00:39.622236+00:00",
        "meta_object_name": "FENGYUN 1C DEB",
        "meta_object_id": "1999-025DE",
        "meta_epoch": "2025-12-24T12:22:56.695872",
        "meta_mean_motion": 14.02027021,
        "meta_eccentricity": 0.01437428,
        "meta_inclination": 98.3495,
        "meta_ra_of_asc_node": 186.3771,
        "meta_arg_of_pericenter": 294.6465,
        "meta_mean_anomaly": 121.1295,
        "meta_ephemeris_type": 0,
        "meta_classification_type": "U",
        "meta_norad_cat_id": 29812,
        "meta_element_set_no": 999,
        "meta_rev_at_epoch": 96337,
        "meta_bstar": 0.0010815848,
        "meta_mean_motion_dot": 1.766e-05,
        "meta_mean_motion_ddot": 0,
        "tle_line1": "1 29812U 99025DE  25358.51593398  .00001766  00000+0  10816-2 0  9990",
        "tle_line2": "2 29812  98.3495 186.3771 0143742 294.6465 121.1295 14.02027021963370"
      },
      "geometry": {
        "type": "Point",
        "coordinates": [
          -174.68654216429405,
          14.859800166470908
        ]
      }
    },
    {
      "type": "Feature",
      "properties": {
        "norad_id": 29813,
        "name": "FENGYUN 1C DEB",
        "group": "fengyun-1c-debris",
        "lat": -7.06434546043429,
        "lon": 20.338803087438038,
        "alt_km": 873.8064557956423,
        "timestamp": "2025-12-25T19:00:39.622246+00:00",
        "meta_object_name": "FENGYUN 1C DEB",
        "meta_object_id": "1999-025DF",
        "meta_epoch": "2025-12-25T00:33:58.208832",
        "meta_mean_motion": 14.09454296,
        "meta_eccentricity": 0.0012383,
        "meta_inclination": 98.7266,
        "meta_ra_of_asc_node": 18.5035,
        "meta_arg_of_pericenter": 186.3983,
        "meta_mean_anomaly": 229.145,
        "meta_ephemeris_type": 0,
        "meta_classification_type": "U",
        "meta_norad_cat_id": 29813,
        "meta_element_set_no": 999,
        "meta_rev_at_epoch": 97433,
        "meta_bstar": 3.8037944e-05,
        "meta_mean_motion_dot": 2.4e-07,
        "meta_mean_motion_ddot": 0,
        "tle_line1": "1 29813U 99025DF  25359.02359038  .00000024  00000+0  38038-4 0  9993",
        "tle_line2": "2 29813  98.7266  18.5035 0012383 186.3983 229.1450 14.09454296974333"
      },
      "geometry": {
        "type": "Point",
        "coordinates": [
          20.338803087438038,
          -7.06434546043429
        ]
      }
    },
    {
      "type": "Feature",
      "properties": {
        "norad_id": 29815,
        "name": "FENGYUN 1C DEB",
        "group": "fengyun-1c-debris",
        "lat": -4.781798231757428,
        "lon": 8.698259314253551,
        "alt_km": 702.5271857631506,
        "timestamp": "2025-12-25T19:00:39.622256+00:00",
        "meta_object_name": "FENGYUN 1C DEB",
        "meta_object_id": "1999-025DH",
        "meta_epoch": "2025-12-24T23:20:46.968576",
        "meta_mean_motion": 14.63790379,
        "meta_eccentricity": 0.01841505,
        "meta_inclination": 98.0552,
        "meta_ra_of_asc_node": 7.2181,
        "meta_arg_of_pericenter": 96.8677,
        "meta_mean_anomaly": 265.3513,
        "meta_ephemeris_type": 0,
        "meta_classification_type": "U",
        "meta_norad_cat_id": 29815,
        "meta_element_set_no": 999,
        "meta_rev_at_epoch": 30,
        "meta_bstar": 0.00057437228,
        "meta_mean_motion_dot": 3.783e-05,
        "meta_mean_motion_ddot": 0,
        "tle_line1": "1 29815U 99025DH  25358.97276584  .00003783  00000+0  57437-3 0  9990",
        "tle_line2": "2 29815  98.0552   7.2181 0184150  96.8677 265.3513 14.63790379   304"
      },
      "geometry": {
        "type": "Point",
        "coordinates": [
          8.698259314253551,
          -4.781798231757428
        ]
      }
    }
  ]
}